[{"ORDINAL":"4","COMMENT":"GENERATED VIA SPACETRACK.ORG API","ORIGINATOR":"JSPOC","NORAD_CAT_ID":"39511","OBJECT_NAME":"ARIANE 5 DEB (SYLDA)","OBJECT_TYPE":"DEBRIS","CLASSIFICATION_TYPE":"U","INTLDES":"14006D","EPOCH":"2014-12-02 15:07:30","EPOCH_MICROSECONDS":"983808","MEAN_MOTION":"2.52290222","ECCENTRICITY":"0.7100062","INCLINATION":"5.6589","RA_OF_ASC_NODE":"153.8584","ARG_OF_PERICENTER":"77.2949","MEAN_ANOMALY":"347.8574","EPHEMERIS_TYPE":"0","ELEMENT_SET_NO":"314","REV_AT_EPOCH":"701","BSTAR":"0.018492","MEAN_MOTION_DOT":"0.00113564","MEAN_MOTION_DDOT":"0","FILE":"1787490","TLE_LINE0":"0 ARIANE 5 DEB (SYLDA)","TLE_LINE1":"1 39511U 14006D   14336.63021972  .00113564  00000-0  18492-1 0  3143","TLE_LINE2":"2 39511 005.6589 153.8584 7100062 077.2949 347.8574 02.52290222  7014","OBJECT_ID":"2014-006D","OBJECT_NUMBER":"39511"},{"ORDINAL":"4","COMMENT":"GENERATED VIA SPACETRACK.ORG API","ORIGINATOR":"JSPOC","NORAD_CAT_ID":"39615","OBJECT_NAME":"BREEZE-M DEB (TANK)","OBJECT_TYPE":"DEBRIS","CLASSIFICATION_TYPE":"U","INTLDES":"14010D","EPOCH":"2014-12-02 11:40:50","EPOCH_MICROSECONDS":"689920","MEAN_MOTION":"2.28257309","ECCENTRICITY":"0.7285677","INCLINATION":"48.4271","RA_OF_ASC_NODE":"98.9195","ARG_OF_PERICENTER":"63.6018","MEAN_ANOMALY":"351.6316","EPHEMERIS_TYPE":"0","ELEMENT_SET_NO":"160","REV_AT_EPOCH":"588","BSTAR":"0.0012406","MEAN_MOTION_DOT":"6.209e-05","MEAN_MOTION_DDOT":"0","FILE":"1787651","TLE_LINE0":"0 BREEZE-M DEB (TANK)","TLE_LINE1":"1 39615U 14010D   14336.48669780  .00006209  00000-0  12406-2 0  1607","TLE_LINE2":"2 39615 048.4271 098.9195 7285677 063.6018 351.6316 02.28257309  5883","OBJECT_ID":"2014-010D","OBJECT_NUMBER":"39615"},{"ORDINAL":"2","COMMENT":"GENERATED VIA SPACETRACK.ORG API","ORIGINATOR":"JSPOC","NORAD_CAT_ID":"40265","OBJECT_NAME":"CZ-2C DEB","OBJECT_TYPE":"DEBRIS","CLASSIFICATION_TYPE":"U","INTLDES":"14059E","EPOCH":"2014-12-02 11:11:08","EPOCH_MICROSECONDS":"307168","MEAN_MOTION":"14.18060043","ECCENTRICITY":"0.0199107","INCLINATION":"97.9395","RA_OF_ASC_NODE":"57.9407","ARG_OF_PERICENTER":"339.1692","MEAN_ANOMALY":"20.1454","EPHEMERIS_TYPE":"0","ELEMENT_SET_NO":"37","REV_AT_EPOCH":"924","BSTAR":"0.00063448","MEAN_MOTION_DOT":"1.542e-05","MEAN_MOTION_DDOT":"0","FILE":"1787110","TLE_LINE0":"0 CZ-2C DEB","TLE_LINE1":"1 40265U 14059E   14336.46606837  .00001542  00000-0  63448-3 0   376","TLE_LINE2":"2 40265 097.9395 057.9407 0199107 339.1692 020.1454 14.18060043  9241","OBJECT_ID":"2014-059E","OBJECT_NUMBER":"40265"},{"ORDINAL":"3","COMMENT":"GENERATED VIA SPACETRACK.ORG API","ORIGINATOR":"JSPOC","NORAD_CAT_ID":"40279","OBJECT_NAME":"BREEZE-M DEB (TANK)","OBJECT_TYPE":"DEBRIS","CLASSIFICATION_TYPE":"U","INTLDES":"14064C","EPOCH":"2014-12-02 08:17:26","EPOCH_MICROSECONDS":"291616","MEAN_MOTION":"2.1420978","ECCENTRICITY":"0.7360782","INCLINATION":"49.3935","RA_OF_ASC_NODE":"255.9946","ARG_OF_PERICENTER":"8.6854","MEAN_ANOMALY":"359.019","EPHEMERIS_TYPE":"0","ELEMENT_SET_NO":"30","REV_AT_EPOCH":"89","BSTAR":"0.0026617","MEAN_MOTION_DOT":"2e-05","MEAN_MOTION_DDOT":"0","FILE":"1787134","TLE_LINE0":"0 BREEZE-M DEB (TANK)","TLE_LINE1":"1 40279U 14064C   14336.34544319  .00002000  00000-0  26617-2 0   309","TLE_LINE2":"2 40279 049.3935 255.9946 7360782 008.6854 359.0190 02.14209780   898","OBJECT_ID":"2014-064C","OBJECT_NUMBER":"40279"},{"ORDINAL":"2","COMMENT":"GENERATED VIA SPACETRACK.ORG API","ORIGINATOR":"JSPOC","NORAD_CAT_ID":"40048","OBJECT_NAME":"SL-24 DEB","OBJECT_TYPE":"DEBRIS","CLASSIFICATION_TYPE":"U","INTLDES":"14033AQ","EPOCH":"2014-12-02 07:16:44","EPOCH_MICROSECONDS":"747616","MEAN_MOTION":"14.99320816","ECCENTRICITY":"0.0040623","INCLINATION":"97.9796","RA_OF_ASC_NODE":"234.3038","ARG_OF_PERICENTER":"158.7405","MEAN_ANOMALY":"201.5524","EPHEMERIS_TYPE":"0","ELEMENT_SET_NO":"209","REV_AT_EPOCH":"2474","BSTAR":"0.0017301","MEAN_MOTION_DOT":"0.00021493","MEAN_MOTION_DDOT":"0","FILE":"1787131","TLE_LINE0":"0 SL-24 DEB","TLE_LINE1":"1 40048U 14033AQ  14336.30329569  .00021493  00000-0  17301-2 0  2098","TLE_LINE2":"2 40048 097.9796 234.3038 0040623 158.7405 201.5524 14.99320816 24742","OBJECT_ID":"2014-033AQ","OBJECT_NUMBER":"40048"},{"ORDINAL":"3","COMMENT":"GENERATED VIA SPACETRACK.ORG API","ORIGINATOR":"JSPOC","NORAD_CAT_ID":"40260","OBJECT_NAME":"BREEZE-M DEB (TANK)","OBJECT_TYPE":"DEBRIS","CLASSIFICATION_TYPE":"U","INTLDES":"14058C","EPOCH":"2014-12-02 04:29:01","EPOCH_MICROSECONDS":"900319","MEAN_MOTION":"2.27046158","ECCENTRICITY":"0.720013","INCLINATION":"46.1315","RA_OF_ASC_NODE":"303.5986","ARG_OF_PERICENTER":"17.5723","MEAN_ANOMALY":"357.9176","EPHEMERIS_TYPE":"0","ELEMENT_SET_NO":"38","REV_AT_EPOCH":"145","BSTAR":"0.00086415","MEAN_MOTION_DOT":"1.54e-06","MEAN_MOTION_DDOT":"0","FILE":"1787109","TLE_LINE0":"0 BREEZE-M DEB (TANK)","TLE_LINE1":"1 40260U 14058C   14336.18682755  .00000154  00000-0  86415-3 0   380","TLE_LINE2":"2 40260 046.1315 303.5986 7200130 017.5723 357.9176 02.27046158  1459","OBJECT_ID":"2014-058C","OBJECT_NUMBER":"40260"},{"ORDINAL":"3","COMMENT":"GENERATED VIA SPACETRACK.ORG API","ORIGINATOR":"JSPOC","NORAD_CAT_ID":"39730","OBJECT_NAME":"BREEZE-M DEB (TANK)","OBJECT_TYPE":"DEBRIS","CLASSIFICATION_TYPE":"U","INTLDES":"14023D","EPOCH":"2014-12-02 01:19:59","EPOCH_MICROSECONDS":"257344","MEAN_MOTION":"2.29402246","ECCENTRICITY":"0.7287728","INCLINATION":"47.0553","RA_OF_ASC_NODE":"230.2158","ARG_OF_PERICENTER":"57.4213","MEAN_ANOMALY":"352.8087","EPHEMERIS_TYPE":"0","ELEMENT_SET_NO":"186","REV_AT_EPOCH":"496","BSTAR":"0.0022743","MEAN_MOTION_DOT":"0.00021438","MEAN_MOTION_DDOT":"0","FILE":"1787092","TLE_LINE0":"0 BREEZE-M DEB (TANK)","TLE_LINE1":"1 39730U 14023D   14336.05554696  .00021438  00000-0  22743-2 0  1865","TLE_LINE2":"2 39730 047.0553 230.2158 7287728 057.4213 352.8087 02.29402246  4965","OBJECT_ID":"2014-023D","OBJECT_NUMBER":"39730"},{"ORDINAL":"2","COMMENT":"GENERATED VIA SPACETRACK.ORG API","ORIGINATOR":"JSPOC","NORAD_CAT_ID":"40151","OBJECT_NAME":"FOTON M4 DEB","OBJECT_TYPE":"DEBRIS","CLASSIFICATION_TYPE":"U","INTLDES":"14041D","EPOCH":"2014-12-02 00:14:53","EPOCH_MICROSECONDS":"630879","MEAN_MOTION":"15.12935598","ECCENTRICITY":"0.0070024","INCLINATION":"65.0018","RA_OF_ASC_NODE":"266.7202","ARG_OF_PERICENTER":"43.6052","MEAN_ANOMALY":"317.0086","EPHEMERIS_TYPE":"0","ELEMENT_SET_NO":"103","REV_AT_EPOCH":"1229","BSTAR":"0.0076789","MEAN_MOTION_DOT":"0.00146908","MEAN_MOTION_DDOT":"0","FILE":"1786903","TLE_LINE0":"0 FOTON M4 DEB","TLE_LINE1":"1 40151U 14041D   14336.01034295  .00146908  00000-0  76789-2 0  1036","TLE_LINE2":"2 40151 065.0018 266.7202 0070024 043.6052 317.0086 15.12935598 12298","OBJECT_ID":"2014-041D","OBJECT_NUMBER":"40151"},{"ORDINAL":"2","COMMENT":"GENERATED VIA SPACETRACK.ORG API","ORIGINATOR":"JSPOC","NORAD_CAT_ID":"40289","OBJECT_NAME":"CZ-2C DEB","OBJECT_TYPE":"DEBRIS","CLASSIFICATION_TYPE":"U","INTLDES":"14066D","EPOCH":"2014-12-01 21:20:16","EPOCH_MICROSECONDS":"660607","MEAN_MOTION":"14.46860057","ECCENTRICITY":"0.0114938","INCLINATION":"98.4343","RA_OF_ASC_NODE":"89.9242","ARG_OF_PERICENTER":"115.4435","MEAN_ANOMALY":"245.8697","EPHEMERIS_TYPE":"0","ELEMENT_SET_NO":"44","REV_AT_EPOCH":"514","BSTAR":"0.0018459","MEAN_MOTION_DOT":"7.228e-05","MEAN_MOTION_DDOT":"0","FILE":"1786815","TLE_LINE0":"0 CZ-2C DEB","TLE_LINE1":"1 40289U 14066D   14335.88908172  .00007228  00000-0  18459-2 0   448","TLE_LINE2":"2 40289 098.4343 089.9242 0114938 115.4435 245.8697 14.46860057  5141","OBJECT_ID":"2014-066D","OBJECT_NUMBER":"40289"},{"ORDINAL":"2","COMMENT":"GENERATED VIA SPACETRACK.ORG API","ORIGINATOR":"JSPOC","NORAD_CAT_ID":"40113","OBJECT_NAME":"CZ-4C DEB","OBJECT_TYPE":"DEBRIS","CLASSIFICATION_TYPE":"U","INTLDES":"14047E","EPOCH":"2014-12-01 21:08:57","EPOCH_MICROSECONDS":"312960","MEAN_MOTION":"13.43922818","ECCENTRICITY":"0.002076","INCLINATION":"63.4218","RA_OF_ASC_NODE":"58.0943","ARG_OF_PERICENTER":"23.4777","MEAN_ANOMALY":"336.7193","EPHEMERIS_TYPE":"0","ELEMENT_SET_NO":"79","REV_AT_EPOCH":"1540","BSTAR":"0","MEAN_MOTION_DOT":"-9e-07","MEAN_MOTION_DDOT":"0","FILE":"1786828","TLE_LINE0":"0 CZ-4C DEB","TLE_LINE1":"1 40113U 14047E   14335.88121890 -.00000090  00000-0  00000+0 0   796","TLE_LINE2":"2 40113 063.4218 058.0943 0020760 023.4777 336.7193 13.43922818 15402","OBJECT_ID":"2014-047E","OBJECT_NUMBER":"40113"},{"ORDINAL":"3","COMMENT":"GENERATED VIA SPACETRACK.ORG API","ORIGINATOR":"JSPOC","NORAD_CAT_ID":"40309","OBJECT_NAME":"CZ-2C DEB","OBJECT_TYPE":"DEBRIS","CLASSIFICATION_TYPE":"U","INTLDES":"14071E","EPOCH":"2014-12-01 20:32:20","EPOCH_MICROSECONDS":"75424","MEAN_MOTION":"14.99388978","ECCENTRICITY":"0.0128582","INCLINATION":"97.1289","RA_OF_ASC_NODE":"279.4749","ARG_OF_PERICENTER":"145.6801","MEAN_ANOMALY":"215.3328","EPHEMERIS_TYPE":"0","ELEMENT_SET_NO":"22","REV_AT_EPOCH":"255","BSTAR":"0.0027586","MEAN_MOTION_DOT":"0.00040295","MEAN_MOTION_DDOT":"0","FILE":"1787003","TLE_LINE0":"0 CZ-2C DEB","TLE_LINE1":"1 40309U 14071E   14335.85578791  .00040295  00000-0  27586-2 0   222","TLE_LINE2":"2 40309 097.1289 279.4749 0128582 145.6801 215.3328 14.99388978  2559","OBJECT_ID":"2014-071E","OBJECT_NUMBER":"40309"},{"ORDINAL":"5","COMMENT":"GENERATED VIA SPACETRACK.ORG API","ORIGINATOR":"JSPOC","NORAD_CAT_ID":"39511","OBJECT_NAME":"ARIANE 5 DEB (SYLDA)","OBJECT_TYPE":"DEBRIS","CLASSIFICATION_TYPE":"U","INTLDES":"14006D","EPOCH":"2014-12-01 20:05:52","EPOCH_MICROSECONDS":"376064","MEAN_MOTION":"2.52102357","ECCENTRICITY":"0.7101504","INCLINATION":"5.6597","RA_OF_ASC_NODE":"154.2705","ARG_OF_PERICENTER":"76.5119","MEAN_ANOMALY":"348.0638","EPHEMERIS_TYPE":"0","ELEMENT_SET_NO":"313","REV_AT_EPOCH":"699","BSTAR":"0.018162","MEAN_MOTION_DOT":"0.00111393","MEAN_MOTION_DDOT":"0","FILE":"1786993","TLE_LINE0":"0 ARIANE 5 DEB (SYLDA)","TLE_LINE1":"1 39511U 14006D   14335.83741176  .00111393  00000-0  18162-1 0  3130","TLE_LINE2":"2 39511 005.6597 154.2705 7101504 076.5119 348.0638 02.52102357  6997","OBJECT_ID":"2014-006D","OBJECT_NUMBER":"39511"}]